{
  "type": "FeatureCollection",
  "features": [
    {
      "type": "Feature",
      "properties": {
        "norad_id": 31307,
        "name": "GALAXY 17 (G-17)",
        "group": "intelsat",
        "lat": 2.19850035049213,
        "lon": 143.7440791611012,
        "alt_km": 35790.52468703773,
        "timestamp": "2025-12-10T09:57:44.371886+00:00",
        "meta_object_name": "GALAXY 17 (G-17)",
        "meta_object_id": "2007-016B",
        "meta_epoch": "2025-12-09T12:27:47.151072",
        "meta_mean_motion": 1.00272575,
        "meta_eccentricity": 0.00060579,
        "meta_inclination": 2.4919,
        "meta_ra_of_asc_node": 82.3182,
        "meta_arg_of_pericenter": 162.3452,
        "meta_mean_anomaly": 295.7984,
        "meta_ephemeris_type": 0,
        "meta_classification_type": "U",
        "meta_norad_cat_id": 31307,
        "meta_element_set_no": 999,
        "meta_rev_at_epoch": 6790,
        "meta_bstar": 0,
        "meta_mean_motion_dot": -2.04e-06,
        "meta_mean_motion_ddot": 0,
        "tle_line1": "1 31307U 07016B   25343.51929573 -.00000204  00000+0  00000+0 0  9991",
        "tle_line2": "2 31307   2.4919  82.3182 0006057 162.3452 295.7984  1.00272575 67901"
      },
      "geometry": {
        "type": "Point",
        "coordinates": [
          143.7440791611012,
          2.19850035049213
        ]
      }
    },
    {
      "type": "Feature",
      "properties": {
        "norad_id": 31862,
        "name": "DIRECTV 10",
        "group": "intelsat",
        "lat": -0.002073898742496563,
        "lon": 126.03071195748994,
        "alt_km": 35786.30658706364,
        "timestamp": "2025-12-10T09:57:44.371899+00:00",
        "meta_object_name": "DIRECTV 10",
        "meta_object_id": "2007-032A",
        "meta_epoch": "2025-12-09T14:47:45.651840",
        "meta_mean_motion": 1.00270135,
        "meta_eccentricity": 4.26e-05,
        "meta_inclination": 0.0152,
        "meta_ra_of_asc_node": 159.7626,
        "meta_arg_of_pericenter": 48.0937,
        "meta_mean_anomaly": 349.9052,
        "meta_ephemeris_type": 0,
        "meta_classification_type": "U",
        "meta_norad_cat_id": 31862,
        "meta_element_set_no": 999,
        "meta_rev_at_epoch": 4369,
        "meta_bstar": 0,
        "meta_mean_motion_dot": -1e-06,
        "meta_mean_motion_ddot": 0,
        "tle_line1": "1 31862U 07032A   25343.61650060 -.00000100  00000+0  00000+0 0  9993",
        "tle_line2": "2 31862   0.0152 159.7626 0000426  48.0937 349.9052  1.00270135 43692"
      },
      "geometry": {
        "type": "Point",
        "coordinates": [
          126.03071195748994,
          -0.002073898742496563
        ]
      }
    },
    {
      "type": "Feature",
      "properties": {
        "norad_id": 32253,
        "name": "INTELSAT 11 (IS-11)",
        "group": "intelsat",
        "lat": 1.2515098047888225,
        "lon": 104.64229211897047,
        "alt_km": 36162.79172352562,
        "timestamp": "2025-12-10T09:57:44.371910+00:00",
        "meta_object_name": "INTELSAT 11 (IS-11)",
        "meta_object_id": "2007-044B",
        "meta_epoch": "2025-12-09T14:42:38.643264",
        "meta_mean_motion": 0.99047626,
        "meta_eccentricity": 0.0009092,
        "meta_inclination": 3.0722,
        "meta_ra_of_asc_node": 81.0087,
        "meta_arg_of_pericenter": 164.7081,
        "meta_mean_anomaly": 292.9928,
        "meta_ephemeris_type": 0,
        "meta_classification_type": "U",
        "meta_norad_cat_id": 32253,
        "meta_element_set_no": 999,
        "meta_rev_at_epoch": 6657,
        "meta_bstar": 0,
        "meta_mean_motion_dot": 7.4e-07,
        "meta_mean_motion_ddot": 0,
        "tle_line1": "1 32253U 07044B   25343.61294726  .00000074  00000+0  00000+0 0  9993",
        "tle_line2": "2 32253   3.0722  81.0087 0009092 164.7081 292.9928  0.99047626 66570"
      },
      "geometry": {
        "type": "Point",
        "coordinates": [
          104.64229211897047,
          1.2515098047888225
        ]
      }
    },
    {
      "type": "Feature",
      "properties": {
        "norad_id": 32388,
        "name": "HORIZONS-2",
        "group": "intelsat",
        "lat": 2.015569865854092,
        "lon": 154.9756913585012,
        "alt_km": 35795.22534084599,
        "timestamp": "2025-12-10T09:57:44.371922+00:00",
        "meta_object_name": "HORIZONS-2",
        "meta_object_id": "2007-063B",
        "meta_epoch": "2025-12-09T12:34:03.796320",
        "meta_mean_motion": 1.00270503,
        "meta_eccentricity": 0.00050202,
        "meta_inclination": 2.1132,
        "meta_ra_of_asc_node": 82.9918,
        "meta_arg_of_pericenter": 187.0359,
        "meta_mean_anomaly": 283.219,
        "meta_ephemeris_type": 0,
        "meta_classification_type": "U",
        "meta_norad_cat_id": 32388,
        "meta_element_set_no": 999,
        "meta_rev_at_epoch": 6591,
        "meta_bstar": 0,
        "meta_mean_motion_dot": -2.51e-06,
        "meta_mean_motion_ddot": 0,
        "tle_line1": "1 32388U 07063B   25343.52365505 -.00000251  00000+0  00000+0 0  9995",
        "tle_line2": "2 32388   2.1132  82.9918 0005020 187.0359 283.2190  1.00270503 65916"
      },
      "geometry": {
        "type": "Point",
        "coordinates": [
          154.9756913585012,
          2.015569865854092
        ]
      }
    },
    {
      "type": "Feature",
      "properties": {
        "norad_id": 32729,
        "name": "DIRECTV 11",
        "group": "intelsat",
        "lat": -0.0007807493529470952,
        "lon": 129.6255698989478,
        "alt_km": 35785.519429158274,
        "timestamp": "2025-12-10T09:57:44.371935+00:00",
        "meta_object_name": "DIRECTV 11",
        "meta_object_id": "2008-013A",
        "meta_epoch": "2025-12-09T10:14:01.462848",
        "meta_mean_motion": 1.0027202,
        "meta_eccentricity": 4.14e-05,
        "meta_inclination": 0.0295,
        "meta_ra_of_asc_node": 191.9729,
        "meta_arg_of_pericenter": 10.0555,
        "meta_mean_anomaly": 290.7006,
        "meta_ephemeris_type": 0,
        "meta_classification_type": "U",
        "meta_norad_cat_id": 32729,
        "meta_element_set_no": 999,
        "meta_rev_at_epoch": 4369,
        "meta_bstar": 0,
        "meta_mean_motion_dot": -1.23e-06,
        "meta_mean_motion_ddot": 0,
        "tle_line1": "1 32729U 08013A   25343.42640582 -.00000123  00000+0  00000+0 0  9998",
        "tle_line2": "2 32729   0.0295 191.9729 0000414  10.0555 290.7006  1.00272020 43694"
      },
      "geometry": {
        "type": "Point",
        "coordinates": [
          129.6255698989478,
          -0.0007807493529470952
        ]
      }
    },
    {
      "type": "Feature",
      "properties": {
        "norad_id": 32951,
        "name": "GALAXY 18 (G-18)",
        "group": "intelsat",
        "lat": 0.01639789602643133,
        "lon": 105.8036657645001,
        "alt_km": 35797.999211072936,
        "timestamp": "2025-12-10T09:57:44.371947+00:00",
        "meta_object_name": "GALAXY 18 (G-18)",
        "meta_object_id": "2008-024A",
        "meta_epoch": "2025-12-10T04:39:38.509344",
        "meta_mean_motion": 1.00272828,
        "meta_eccentricity": 0.000314,
        "meta_inclination": 0.0149,
        "meta_ra_of_asc_node": 304.7103,
        "meta_arg_of_pericenter": 317.9663,
        "meta_mean_anomaly": 123.4015,
        "meta_ephemeris_type": 0,
        "meta_classification_type": "U",
        "meta_norad_cat_id": 32951,
        "meta_element_set_no": 999,
        "meta_rev_at_epoch": 4395,
        "meta_bstar": 0,
        "meta_mean_motion_dot": 2.8e-07,
        "meta_mean_motion_ddot": 0,
        "tle_line1": "1 32951U 08024A   25344.19419571  .00000028  00000+0  00000+0 0  9997",
        "tle_line2": "2 32951   0.0149 304.7103 0003140 317.9663 123.4015  1.00272828 43954"
      },
      "geometry": {
        "type": "Point",
        "coordinates": [
          105.8036657645001,
          0.01639789602643133
        ]
      }
    },
    {
      "type": "Feature",
      "properties": {
        "norad_id": 33153,
        "name": "INTELSAT 25 (IS-25)",
        "group": "intelsat",
        "lat": 2.010018988235575,
        "lon": -162.7178551348373,
        "alt_km": 35778.62355382821,
        "timestamp": "2025-12-10T09:57:44.371958+00:00",
        "meta_object_name": "INTELSAT 25 (IS-25)",
        "meta_object_id": "2008-034A",
        "meta_epoch": "2025-12-09T20:16:17.404896",
        "meta_mean_motion": 1.00270258,
        "meta_eccentricity": 0.0005379,
        "meta_inclination": 2.2204,
        "meta_ra_of_asc_node": 82.6784,
        "meta_arg_of_pericenter": 184.9843,
        "meta_mean_anomaly": 83.7399,
        "meta_ephemeris_type": 0,
        "meta_classification_type": "U",
        "meta_norad_cat_id": 33153,
        "meta_element_set_no": 999,
        "meta_rev_at_epoch": 6379,
        "meta_bstar": 0,
        "meta_mean_motion_dot": -2.21e-06,
        "meta_mean_motion_ddot": 0,
        "tle_line1": "1 33153U 08034A   25343.84464589 -.00000221  00000+0  00000+0 0  9999",
        "tle_line2": "2 33153   2.2204  82.6784 0005379 184.9843  83.7399  1.00270258 63792"
      },
      "geometry": {
        "type": "Point",
        "coordinates": [
          -162.7178551348373,
          2.010018988235575
        ]
      }
    }
  ]
}